{"type":"FeatureCollection","features":[{"type":"Feature","properties":{"name":"Jharkhand"},"geometry":{"type":"Polygon","coordinates":[[[87.6,25.315],[87.607,25.311],[87.614,25.316],[87.623,25.311],[87.626,25.316],[87.626,25.319],[87.632,25.312],[87.634,25.312],[87.652,25.307],[87.659,25.31],[87.684,25.31],[87.684,25.308],[87.681,25.308],[87.681,25.304],[87.688,25.305],[87.693,25.303],[87.691,25.299],[87.695,25.295],[87.69,25.291],[87.689,25.285],[87.691,25.281],[87.696,25.279],[87.701,25.278],[87.706,25.275],[87.708,25.271],[87.707,25.26],[87.708,25.256],[87.721,25.253],[87.731,25.253],[87.763,25.249],[87.769,25.247],[87.783,25.246],[87.784,25.243],[87.785,25.24],[87.785,25.236],[87.788,25.229],[87.788,25.22],[87.785,25.209],[87.785,25.2],[87.78,25.185],[87.779,25.177],[87.773,25.16],[87.771,25.152],[87.771,25.139],[87.769,25.127],[87.77,25.115],[87.773,25.099],[87.777,25.091],[87.78,25.087],[87.793,25.076],[87.8,25.071],[87.82,25.062],[87.835,25.057],[87.843,25.052],[87.855,25.046],[87.864,25.04],[87.877,25.028],[87.881,25.022],[87.881,25.021],[87.893,25.009],[87.902,24.999],[87.903,24.998],[87.906,24.986],[87.914,24.979],[87.919,24.973],[87.924,24.967],[87.93,24.962],[87.939,24.956],[87.946,24.949],[87.95,24.945],[87.956,24.941],[87.962,24.936],[87.966,24.93],[87.97,24.924],[87.97,24.916],[87.971,24.91],[87.972,24.903],[87.973,24.896],[87.972,24.891],[87.969,24.885],[87.967,24.881],[87.961,24.879],[87.952,24.877],[87.945,24.873],[87.936,24.87],[87.929,24.866],[87.922,24.86],[87.911,24.856],[87.897,24.854],[87.889,24.853],[87.891,24.848],[87.895,24.848],[87.898,24.843],[87.897,24.842],[87.896,24.84],[87.895,24.834],[87.894,24.829],[87.896,24.828],[87.898,24.825],[87.896,24.823],[87.891,24.823],[87.887,24.82],[87.882,24.82],[87.875,24.823],[87.869,24.823],[87.868,24.823],[87.866,24.821],[87.868,24.818],[87.87,24.815],[87.872,24.812],[87.873,24.808],[87.873,24.805],[87.876,24.803],[87.878,24.801],[87.878,24.798],[87.877,24.794],[87.875,24.79],[87.873,24.79],[87.872,24.792],[87.87,24.791],[87.868,24.787],[87.867,24.782],[87.865,24.779],[87.867,24.776],[87.865,24.774],[87.86,24.772],[87.858,24.768],[87.855,24.764],[87.85,24.761],[87.847,24.761],[87.842,24.763],[87.839,24.765],[87.835,24.763],[87.834,24.766],[87.834,24.77],[87.834,24.775],[87.837,24.777],[87.839,24.78],[87.838,24.785],[87.838,24.788],[87.834,24.788],[87.83,24.783],[87.828,24.777],[87.828,24.772],[87.826,24.769],[87.822,24.767],[87.818,24.766],[87.816,24.76],[87.814,24.753],[87.816,24.752],[87.821,24.752],[87.825,24.752],[87.84,24.738],[87.852,24.735],[87.861,24.731],[87.867,24.729],[87.871,24.73],[87.875,24.735],[87.878,24.739],[87.882,24.736],[87.884,24.733],[87.885,24.729],[87.887,24.725],[87.891,24.723],[87.896,24.723],[87.901,24.722],[87.902,24.718],[87.903,24.715],[87.903,24.712],[87.903,24.71],[87.901,24.711],[87.899,24.71],[87.898,24.706],[87.896,24.702],[87.899,24.7],[87.898,24.695],[87.897,24.691],[87.893,24.686],[87.889,24.682],[87.886,24.678],[87.887,24.674],[87.89,24.67],[87.895,24.669],[87.9,24.669],[87.903,24.667],[87.906,24.664],[87.912,24.662],[87.913,24.659],[87.91,24.655],[87.909,24.651],[87.908,24.647],[87.908,24.642],[87.908,24.637],[87.906,24.633],[87.904,24.63],[87.902,24.629],[87.9,24.629],[87.897,24.63],[87.892,24.632],[87.889,24.631],[87.887,24.629],[87.885,24.627],[87.887,24.624],[87.892,24.624],[87.895,24.624],[87.899,24.626],[87.902,24.626],[87.902,24.623],[87.901,24.62],[87.902,24.617],[87.902,24.613],[87.899,24.611],[87.896,24.612],[87.894,24.613],[87.891,24.612],[87.888,24.611],[87.886,24.612],[87.882,24.614],[87.879,24.615],[87.877,24.616],[87.875,24.616],[87.873,24.613],[87.873,24.611],[87.874,24.609],[87.875,24.61],[87.876,24.609],[87.878,24.609],[87.881,24.607],[87.886,24.605],[87.888,24.605],[87.889,24.608],[87.893,24.608],[87.899,24.608],[87.903,24.608],[87.908,24.608],[87.908,24.604],[87.908,24.599],[87.909,24.596],[87.91,24.594],[87.909,24.591],[87.907,24.587],[87.905,24.584],[87.903,24.582],[87.899,24.584],[87.897,24.582],[87.896,24.581],[87.891,24.58],[87.89,24.575],[87.89,24.572],[87.887,24.563],[87.881,24.563],[87.877,24.561],[87.869,24.561],[87.866,24.561],[87.864,24.559],[87.864,24.557],[87.86,24.555],[87.856,24.555],[87.854,24.556],[87.85,24.558],[87.849,24.557],[87.85,24.554],[87.848,24.551],[87.845,24.553],[87.841,24.554],[87.835,24.556],[87.827,24.558],[87.825,24.559],[87.824,24.563],[87.823,24.567],[87.82,24.568],[87.817,24.57],[87.814,24.573],[87.812,24.574],[87.809,24.576],[87.805,24.578],[87.802,24.578],[87.799,24.578],[87.795,24.58],[87.791,24.581],[87.785,24.582],[87.78,24.582],[87.769,24.582],[87.768,24.576],[87.768,24.572],[87.773,24.572],[87.778,24.571],[87.786,24.569],[87.792,24.566],[87.796,24.562],[87.799,24.559],[87.803,24.554],[87.805,24.549],[87.806,24.545],[87.806,24.542],[87.804,24.54],[87.8,24.541],[87.797,24.539],[87.798,24.535],[87.797,24.53],[87.798,24.525],[87.799,24.521],[87.801,24.518],[87.801,24.515],[87.8,24.512],[87.799,24.509],[87.799,24.507],[87.8,24.504],[87.798,24.502],[87.794,24.5],[87.793,24.497],[87.794,24.494],[87.795,24.491],[87.799,24.492],[87.801,24.495],[87.803,24.499],[87.803,24.502],[87.804,24.505],[87.804,24.507],[87.805,24.51],[87.807,24.511],[87.808,24.509],[87.807,24.506],[87.808,24.505],[87.81,24.502],[87.812,24.499],[87.811,24.496],[87.81,24.495],[87.81,24.492],[87.812,24.492],[87.816,24.493],[87.819,24.492],[87.82,24.493],[87.82,24.496],[87.822,24.496],[87.823,24.494],[87.822,24.492],[87.821,24.49],[87.821,24.488],[87.82,24.486],[87.817,24.486],[87.813,24.485],[87.81,24.48],[87.809,24.477],[87.811,24.475],[87.814,24.473],[87.815,24.47],[87.818,24.468],[87.817,24.465],[87.818,24.462],[87.817,24.459],[87.816,24.455],[87.815,24.454],[87.815,24.451],[87.811,24.452],[87.807,24.453],[87.803,24.45],[87.801,24.447],[87.8,24.445],[87.8,24.444],[87.797,24.442],[87.796,24.439],[87.793,24.44],[87.791,24.438],[87.79,24.435],[87.788,24.432],[87.79,24.429],[87.792,24.427],[87.792,24.424],[87.79,24.422],[87.786,24.419],[87.785,24.415],[87.788,24.412],[87.793,24.411],[87.799,24.411],[87.801,24.413],[87.805,24.418],[87.806,24.415],[87.808,24.412],[87.809,24.409],[87.81,24.407],[87.807,24.404],[87.804,24.404],[87.802,24.402],[87.798,24.4],[87.795,24.4],[87.793,24.396],[87.793,24.393],[87.795,24.392],[87.797,24.392],[87.798,24.391],[87.798,24.386],[87.798,24.382],[87.794,24.381],[87.79,24.377],[87.788,24.372],[87.785,24.368],[87.782,24.36],[87.779,24.357],[87.777,24.353],[87.773,24.349],[87.769,24.345],[87.768,24.34],[87.765,24.339],[87.761,24.333],[87.761,24.328],[87.764,24.325],[87.764,24.323],[87.762,24.321],[87.76,24.32],[87.759,24.317],[87.76,24.313],[87.758,24.308],[87.756,24.304],[87.752,24.305],[87.748,24.301],[87.746,24.3],[87.743,24.298],[87.74,24.293],[87.736,24.292],[87.736,24.289],[87.733,24.288],[87.73,24.288],[87.727,24.286],[87.724,24.287],[87.72,24.288],[87.716,24.29],[87.71,24.292],[87.71,24.287],[87.709,24.283],[87.708,24.28],[87.706,24.278],[87.705,24.275],[87.705,24.272],[87.706,24.268],[87.705,24.264],[87.703,24.26],[87.697,24.26],[87.693,24.257],[87.689,24.256],[87.685,24.253],[87.683,24.249],[87.681,24.246],[87.678,24.246],[87.674,24.247],[87.671,24.244],[87.669,24.243],[87.665,24.243],[87.662,24.245],[87.66,24.242],[87.659,24.238],[87.657,24.235],[87.654,24.237],[87.652,24.24],[87.65,24.244],[87.649,24.247],[87.647,24.249],[87.642,24.25],[87.64,24.246],[87.636,24.243],[87.637,24.238],[87.64,24.235],[87.643,24.23],[87.643,24.225],[87.642,24.22],[87.638,24.216],[87.638,24.212],[87.645,24.208],[87.653,24.206],[87.659,24.207],[87.666,24.206],[87.671,24.206],[87.674,24.2],[87.675,24.195],[87.678,24.191],[87.684,24.189],[87.689,24.185],[87.693,24.186],[87.694,24.182],[87.694,24.178],[87.697,24.175],[87.696,24.171],[87.696,24.167],[87.693,24.164],[87.694,24.159],[87.692,24.154],[87.69,24.15],[87.684,24.149],[87.68,24.148],[87.674,24.151],[87.668,24.151],[87.664,24.154],[87.657,24.156],[87.651,24.155],[87.646,24.154],[87.641,24.155],[87.636,24.157],[87.632,24.16],[87.628,24.163],[87.622,24.164],[87.616,24.165],[87.61,24.165],[87.604,24.164],[87.6,24.161],[87.596,24.16],[87.59,24.16],[87.584,24.161],[87.58,24.162],[87.577,24.159],[87.569,24.156],[87.571,24.154],[87.576,24.153],[87.581,24.15],[87.586,24.148],[87.59,24.144],[87.594,24.141],[87.598,24.138],[87.601,24.135],[87.605,24.132],[87.608,24.129],[87.605,24.127],[87.6,24.125],[87.595,24.125],[87.593,24.124],[87.582,24.123],[87.58,24.12],[87.58,24.115],[87.578,24.11],[87.575,24.109],[87.572,24.11],[87.569,24.107],[87.569,24.101],[87.571,24.095],[87.574,24.09],[87.576,24.087],[87.576,24.085],[87.573,24.086],[87.57,24.088],[87.567,24.086],[87.563,24.085],[87.56,24.083],[87.556,24.082],[87.553,24.085],[87.548,24.085],[87.544,24.087],[87.539,24.088],[87.534,24.091],[87.531,24.095],[87.531,24.099],[87.53,24.102],[87.527,24.104],[87.524,24.104],[87.521,24.104],[87.52,24.106],[87.519,24.109],[87.517,24.111],[87.514,24.111],[87.511,24.11],[87.507,24.111],[87.503,24.113],[87.5,24.115],[87.497,24.116],[87.494,24.115],[87.493,24.112],[87.494,24.108],[87.495,24.105],[87.497,24.103],[87.497,24.099],[87.496,24.097],[87.494,24.097],[87.493,24.095],[87.494,24.093],[87.49,24.09],[87.489,24.088],[87.49,24.085],[87.493,24.085],[87.498,24.084],[87.502,24.083],[87.506,24.082],[87.505,24.079],[87.504,24.078],[87.503,24.075],[87.501,24.073],[87.5,24.073],[87.497,24.074],[87.493,24.075],[87.49,24.073],[87.489,24.07],[87.491,24.067],[87.493,24.065],[87.494,24.063],[87.493,24.059],[87.492,24.056],[87.491,24.052],[87.495,24.05],[87.501,24.048],[87.504,24.046],[87.508,24.046],[87.508,24.043],[87.511,24.04],[87.509,24.035],[87.507,24.032],[87.504,24.03],[87.502,24.028],[87.501,24.026],[87.501,24.022],[87.496,24.023],[87.495,24.024],[87.491,24.023],[87.488,24.019],[87.486,24.016],[87.483,24.014],[87.479,24.014],[87.476,24.013],[87.473,24.011],[87.471,24.011],[87.469,24.012],[87.467,24.012],[87.464,24.013],[87.462,24.013],[87.459,24.013],[87.457,24.014],[87.455,24.015],[87.452,24.015],[87.449,24.016],[87.446,24.014],[87.443,24.014],[87.439,24.013],[87.437,24.011],[87.434,24.008],[87.435,24.007],[87.437,24.008],[87.438,24.009],[87.441,24.009],[87.444,24.009],[87.447,24.008],[87.446,24.007],[87.445,24.006],[87.442,24.005],[87.441,24.003],[87.443,24.001],[87.447,24.001],[87.45,24],[87.451,23.999],[87.455,23.997],[87.458,23.993],[87.46,23.985],[87.458,23.981],[87.454,23.983],[87.449,23.984],[87.445,23.981],[87.439,23.978],[87.437,23.979],[87.434,23.982],[87.429,23.982],[87.428,23.984],[87.427,23.988],[87.426,23.99],[87.422,23.991],[87.419,23.989],[87.415,23.991],[87.4,23.994],[87.394,23.997],[87.394,23.999],[87.39,24.002],[87.382,24.003],[87.377,24.003],[87.374,24.007],[87.365,24.007],[87.36,24.007],[87.357,24.009],[87.355,24.006],[87.353,24.002],[87.351,23.999],[87.35,23.997],[87.348,23.996],[87.337,23.995],[87.328,23.996],[87.324,23.997],[87.32,23.999],[87.318,24.002],[87.315,24.004],[87.316,24.007],[87.318,24.007],[87.321,24.009],[87.322,24.013],[87.324,24.017],[87.327,24.017],[87.332,24.018],[87.333,24.022],[87.336,24.024],[87.332,24.031],[87.326,24.03],[87.32,24.031],[87.314,24.032],[87.309,24.032],[87.304,24.029],[87.297,24.03],[87.29,24.03],[87.286,24.027],[87.283,24.027],[87.279,24.029],[87.274,24.032],[87.269,24.033],[87.264,24.035],[87.258,24.035],[87.253,24.037],[87.249,24.04],[87.244,24.042],[87.238,24.041],[87.235,24.037],[87.233,24.033],[87.233,24.025],[87.235,24.018],[87.239,24.015],[87.24,24.011],[87.241,24.006],[87.244,24.001],[87.245,23.999],[87.246,23.998],[87.246,23.998],[87.247,23.997],[87.247,23.997],[87.248,23.997],[87.248,23.996],[87.249,23.996],[87.249,23.996],[87.25,23.996],[87.25,23.996],[87.251,23.996],[87.251,23.996],[87.252,23.996],[87.252,23.996],[87.253,23.996],[87.253,23.996],[87.254,23.996],[87.254,23.996],[87.255,23.997],[87.255,23.997],[87.255,23.997],[87.256,23.998],[87.256,23.998],[87.256,23.998],[87.256,23.999],[87.257,24],[87.261,24.003],[87.263,23.999],[87.262,23.995],[87.267,23.988],[87.268,23.985],[87.266,23.982],[87.261,23.978],[87.26,23.97],[87.262,23.966],[87.265,23.963],[87.269,23.965],[87.278,23.958],[87.287,23.957],[87.292,23.956],[87.29,23.947],[87.292,23.939],[87.285,23.934],[87.288,23.926],[87.288,23.92],[87.295,23.899],[87.291,23.899],[87.293,23.89],[87.286,23.884],[87.281,23.884],[87.278,23.882],[87.27,23.873],[87.265,23.875],[87.262,23.878],[87.264,23.88],[87.261,23.892],[87.256,23.898],[87.26,23.902],[87.259,23.904],[87.257,23.908],[87.252,23.91],[87.248,23.907],[87.244,23.9],[87.246,23.895],[87.243,23.885],[87.245,23.881],[87.244,23.878],[87.245,23.868],[87.249,23.866],[87.246,23.857],[87.247,23.851],[87.252,23.848],[87.253,23.843],[87.255,23.839],[87.246,23.828],[87.243,23.826],[87.239,23.825],[87.234,23.825],[87.229,23.823],[87.22,23.827],[87.219,23.831],[87.222,23.835],[87.224,23.843],[87.228,23.843],[87.232,23.845],[87.235,23.848],[87.236,23.853],[87.228,23.855],[87.222,23.858],[87.217,23.851],[87.213,23.85],[87.207,23.853],[87.203,23.846],[87.199,23.847],[87.194,23.842],[87.192,23.84],[87.189,23.841],[87.189,23.846],[87.195,23.851],[87.196,23.854],[87.187,23.857],[87.184,23.853],[87.181,23.852],[87.177,23.852],[87.173,23.856],[87.169,23.858],[87.167,23.86],[87.157,23.865],[87.153,23.866],[87.148,23.863],[87.141,23.865],[87.139,23.867],[87.136,23.868],[87.131,23.867],[87.128,23.862],[87.13,23.858],[87.129,23.855],[87.13,23.851],[87.138,23.846],[87.146,23.837],[87.154,23.826],[87.159,23.828],[87.162,23.828],[87.166,23.82],[87.156,23.804],[87.154,23.798],[87.149,23.794],[87.144,23.796],[87.139,23.8],[87.134,23.796],[87.124,23.795],[87.113,23.797],[87.11,23.799],[87.115,23.8],[87.116,23.802],[87.116,23.805],[87.113,23.806],[87.108,23.802],[87.106,23.8],[87.096,23.809],[87.091,23.81],[87.088,23.808],[87.085,23.805],[87.077,23.809],[87.073,23.812],[87.064,23.813],[87.057,23.816],[87.034,23.837],[87.022,23.841],[87.013,23.847],[87.002,23.852],[86.995,23.854],[86.98,23.856],[86.972,23.863],[86.967,23.865],[86.963,23.865],[86.96,23.862],[86.958,23.859],[86.956,23.85],[86.951,23.846],[86.943,23.843],[86.936,23.845],[86.928,23.85],[86.925,23.854],[86.924,23.866],[86.907,23.88],[86.904,23.879],[86.895,23.88],[86.891,23.876],[86.885,23.873],[86.88,23.867],[86.875,23.862],[86.875,23.857],[86.882,23.857],[86.88,23.842],[86.885,23.834],[86.885,23.83],[86.887,23.827],[86.888,23.822],[86.884,23.819],[86.882,23.814],[86.877,23.813],[86.877,23.821],[86.873,23.827],[86.873,23.834],[86.871,23.844],[86.861,23.842],[86.857,23.84],[86.854,23.832],[86.844,23.822],[86.835,23.819],[86.826,23.813],[86.821,23.811],[86.814,23.812],[86.809,23.814],[86.807,23.818],[86.808,23.825],[86.806,23.828],[86.804,23.831],[86.8,23.833],[86.797,23.832],[86.793,23.831],[86.792,23.827],[86.797,23.824],[86.801,23.813],[86.798,23.798],[86.808,23.788],[86.817,23.776],[86.82,23.761],[86.819,23.752],[86.816,23.745],[86.812,23.745],[86.808,23.744],[86.805,23.74],[86.798,23.716],[86.794,23.706],[86.791,23.698],[86.793,23.695],[86.796,23.693],[86.792,23.687],[86.773,23.682],[86.759,23.678],[86.738,23.678],[86.736,23.679],[86.737,23.689],[86.732,23.694],[86.711,23.697],[86.694,23.695],[86.683,23.69],[86.669,23.686],[86.649,23.683],[86.633,23.676],[86.624,23.673],[86.616,23.672],[86.592,23.671],[86.588,23.669],[86.589,23.665],[86.591,23.662],[86.583,23.659],[86.565,23.646],[86.552,23.64],[86.537,23.635],[86.529,23.629],[86.524,23.628],[86.512,23.629],[86.502,23.632],[86.481,23.635],[86.472,23.631],[86.466,23.63],[86.445,23.632],[86.44,23.63],[86.438,23.628],[86.438,23.624],[86.44,23.617],[86.44,23.609],[86.435,23.608],[86.43,23.611],[86.427,23.61],[86.425,23.605],[86.418,23.603],[86.414,23.601],[86.41,23.598],[86.406,23.588],[86.4,23.589],[86.389,23.589],[86.387,23.585],[86.381,23.584],[86.382,23.579],[86.382,23.576],[86.383,23.572],[86.378,23.569],[86.375,23.569],[86.373,23.561],[86.368,23.559],[86.365,23.557],[86.364,23.551],[86.362,23.55],[86.36,23.546],[86.358,23.543],[86.36,23.538],[86.359,23.534],[86.36,23.531],[86.364,23.528],[86.365,23.525],[86.368,23.523],[86.367,23.519],[86.365,23.515],[86.357,23.513],[86.357,23.51],[86.354,23.496],[86.359,23.49],[86.362,23.492],[86.371,23.49],[86.372,23.486],[86.372,23.483],[86.371,23.482],[86.369,23.484],[86.364,23.482],[86.355,23.482],[86.349,23.472],[86.352,23.468],[86.352,23.464],[86.347,23.461],[86.338,23.461],[86.338,23.457],[86.34,23.452],[86.331,23.447],[86.329,23.448],[86.329,23.455],[86.326,23.458],[86.321,23.454],[86.315,23.453],[86.312,23.449],[86.306,23.448],[86.3,23.444],[86.3,23.441],[86.306,23.436],[86.31,23.438],[86.312,23.437],[86.313,23.431],[86.314,23.428],[86.313,23.426],[86.3,23.42],[86.29,23.423],[86.282,23.427],[86.281,23.435],[86.281,23.44],[86.278,23.441],[86.273,23.439],[86.267,23.44],[86.266,23.438],[86.264,23.437],[86.258,23.438],[86.252,23.437],[86.25,23.436],[86.247,23.434],[86.248,23.431],[86.253,23.425],[86.251,23.422],[86.246,23.419],[86.243,23.42],[86.24,23.423],[86.239,23.426],[86.24,23.432],[86.231,23.43],[86.225,23.436],[86.225,23.443],[86.227,23.45],[86.235,23.456],[86.239,23.47],[86.232,23.471],[86.225,23.47],[86.223,23.465],[86.224,23.457],[86.221,23.456],[86.21,23.459],[86.203,23.459],[86.2,23.464],[86.195,23.463],[86.192,23.464],[86.187,23.468],[86.181,23.467],[86.179,23.468],[86.179,23.475],[86.172,23.479],[86.168,23.476],[86.153,23.477],[86.146,23.473],[86.143,23.477],[86.143,23.481],[86.146,23.486],[86.145,23.494],[86.155,23.504],[86.153,23.51],[86.155,23.519],[86.143,23.527],[86.144,23.535],[86.15,23.541],[86.153,23.548],[86.153,23.552],[86.148,23.556],[86.146,23.559],[86.148,23.564],[86.148,23.565],[86.145,23.568],[86.139,23.57],[86.136,23.569],[86.132,23.566],[86.127,23.567],[86.119,23.574],[86.11,23.571],[86.105,23.572],[86.102,23.574],[86.098,23.571],[86.094,23.57],[86.088,23.568],[86.083,23.569],[86.073,23.568],[86.071,23.578],[86.065,23.581],[86.051,23.579],[86.047,23.584],[86.037,23.583],[86.035,23.575],[86.03,23.575],[86.025,23.572],[86.018,23.564],[86.011,23.561],[86.011,23.552],[86.021,23.545],[86.019,23.542],[86.025,23.532],[86.027,23.524],[86.032,23.521],[86.033,23.518],[86.033,23.505],[86.049,23.503],[86.051,23.502],[86.052,23.499],[86.047,23.494],[86.041,23.49],[86.036,23.49],[86.029,23.487],[86.026,23.488],[86.02,23.488],[86.015,23.485],[86.01,23.483],[86.006,23.483],[86.001,23.479],[85.995,23.476],[85.99,23.476],[85.976,23.471],[85.968,23.465],[85.957,23.462],[85.953,23.46],[85.95,23.455],[85.944,23.455],[85.938,23.455],[85.918,23.462],[85.913,23.467],[85.906,23.472],[85.891,23.476],[85.878,23.476],[85.874,23.476],[85.87,23.475],[85.866,23.47],[85.864,23.459],[85.862,23.455],[85.86,23.451],[85.86,23.442],[85.861,23.428],[85.863,23.41],[85.872,23.409],[85.874,23.411],[85.878,23.408],[85.882,23.404],[85.878,23.402],[85.877,23.4],[85.885,23.387],[85.882,23.384],[85.882,23.381],[85.891,23.381],[85.894,23.38],[85.896,23.377],[85.896,23.371],[85.893,23.37],[85.885,23.374],[85.875,23.368],[85.866,23.365],[85.867,23.361],[85.873,23.357],[85.873,23.355],[85.871,23.353],[85.872,23.33],[85.875,23.329],[85.878,23.326],[85.878,23.324],[85.875,23.321],[85.868,23.316],[85.861,23.315],[85.861,23.303],[85.858,23.301],[85.852,23.294],[85.844,23.29],[85.842,23.284],[85.839,23.282],[85.834,23.281],[85.826,23.263],[85.831,23.243],[85.832,23.218],[85.831,23.214],[85.831,23.211],[85.833,23.206],[85.834,23.202],[85.832,23.195],[85.832,23.193],[85.835,23.192],[85.844,23.194],[85.852,23.193],[85.858,23.194],[85.86,23.192],[85.877,23.173],[85.878,23.171],[85.877,23.161],[85.877,23.159],[85.886,23.153],[85.889,23.152],[85.9,23.148],[85.907,23.142],[85.912,23.134],[85.915,23.13],[85.918,23.131],[85.92,23.127],[85.921,23.126],[85.922,23.129],[85.926,23.131],[85.936,23.13],[85.944,23.129],[85.947,23.131],[85.948,23.134],[85.952,23.138],[85.956,23.139],[85.959,23.14],[85.97,23.14],[85.982,23.146],[85.99,23.146],[85.996,23.144],[86.003,23.146],[86.006,23.145],[86.01,23.145],[86.014,23.142],[86.018,23.14],[86.025,23.143],[86.028,23.146],[86.032,23.145],[86.037,23.144],[86.042,23.136],[86.048,23.129],[86.049,23.125],[86.047,23.121],[86.044,23.112],[86.048,23.109],[86.059,23.106],[86.07,23.101],[86.081,23.104],[86.083,23.101],[86.084,23.099],[86.092,23.091],[86.097,23.092],[86.105,23.089],[86.106,23.09],[86.114,23.092],[86.116,23.094],[86.127,23.089],[86.129,23.086],[86.137,23.083],[86.138,23.08],[86.134,23.07],[86.135,23.063],[86.138,23.059],[86.146,23.056],[86.148,23.053],[86.15,23.041],[86.154,23.037],[86.16,23.039],[86.162,23.034],[86.167,23.027],[86.172,23.023],[86.176,23.013],[86.178,23.012],[86.181,23.013],[86.201,23.015],[86.204,23.013],[86.2,23.01],[86.204,22.998],[86.206,22.994],[86.212,22.992],[86.217,22.992],[86.227,22.993],[86.231,22.992],[86.234,22.993],[86.239,22.995],[86.245,22.995],[86.251,22.995],[86.261,22.996],[86.264,22.998],[86.263,22.999],[86.265,23],[86.27,23.004],[86.274,23.007],[86.276,23.009],[86.279,23.011],[86.285,23.011],[86.292,23.01],[86.292,23.009],[86.294,23.008],[86.295,23.009],[86.296,23.01],[86.298,23.013],[86.298,23.013],[86.3,23.012],[86.301,23.01],[86.3,23.008],[86.3,23.006],[86.302,23.003],[86.306,23.002],[86.31,23.001],[86.31,22.998],[86.312,22.995],[86.315,22.996],[86.326,22.992],[86.332,22.989],[86.335,22.989],[86.341,22.993],[86.346,22.993],[86.35,22.989],[86.352,22.995],[86.36,22.997],[86.363,22.993],[86.369,22.994],[86.38,22.991],[86.381,22.984],[86.384,22.98],[86.387,22.977],[86.393,22.974],[86.397,22.978],[86.4,22.983],[86.411,22.987],[86.416,22.995],[86.432,22.99],[86.441,22.99],[86.442,22.987],[86.445,22.985],[86.448,22.987],[86.451,22.988],[86.463,22.985],[86.466,22.989],[86.475,22.986],[86.479,22.989],[86.497,22.99],[86.497,22.983],[86.504,22.978],[86.508,22.973],[86.5,22.969],[86.512,22.966],[86.519,22.968],[86.523,22.972],[86.521,22.973],[86.534,22.981],[86.54,22.987],[86.542,22.974],[86.538,22.966],[86.539,22.962],[86.532,22.962],[86.527,22.961],[86.528,22.958],[86.523,22.949],[86.518,22.944],[86.513,22.946],[86.508,22.945],[86.499,22.948],[86.497,22.948],[86.498,22.945],[86.496,22.941],[86.494,22.941],[86.492,22.944],[86.489,22.944],[86.487,22.936],[86.485,22.934],[86.484,22.938],[86.479,22.941],[86.473,22.944],[86.474,22.949],[86.47,22.949],[86.47,22.947],[86.462,22.944],[86.458,22.939],[86.458,22.933],[86.451,22.93],[86.437,22.927],[86.433,22.923],[86.431,22.92],[86.432,22.916],[86.448,22.902],[86.462,22.899],[86.463,22.897],[86.451,22.883],[86.447,22.883],[86.449,22.877],[86.447,22.869],[86.448,22.862],[86.447,22.859],[86.433,22.86],[86.431,22.846],[86.433,22.841],[86.433,22.835],[86.434,22.829],[86.422,22.809],[86.418,22.79],[86.413,22.786],[86.416,22.777],[86.422,22.774],[86.429,22.768],[86.44,22.763],[86.444,22.759],[86.454,22.76],[86.466,22.746],[86.467,22.74],[86.47,22.737],[86.479,22.722],[86.482,22.725],[86.488,22.723],[86.49,22.72],[86.497,22.715],[86.5,22.711],[86.507,22.702],[86.51,22.702],[86.508,22.708],[86.51,22.716],[86.516,22.715],[86.52,22.718],[86.534,22.717],[86.539,22.721],[86.546,22.715],[86.55,22.711],[86.555,22.708],[86.574,22.695],[86.581,22.689],[86.591,22.689],[86.597,22.685],[86.603,22.68],[86.61,22.677],[86.618,22.673],[86.622,22.666],[86.63,22.663],[86.637,22.655],[86.635,22.647],[86.637,22.631],[86.635,22.623],[86.632,22.61],[86.634,22.604],[86.634,22.597],[86.639,22.594],[86.648,22.592],[86.651,22.584],[86.649,22.582],[86.652,22.576],[86.657,22.573],[86.661,22.574],[86.673,22.572],[86.674,22.573],[86.683,22.577],[86.706,22.58],[86.728,22.575],[86.756,22.574],[86.76,22.572],[86.763,22.565],[86.767,22.561],[86.767,22.556],[86.763,22.553],[86.765,22.551],[86.771,22.548],[86.771,22.546],[86.776,22.547],[86.778,22.545],[86.784,22.544],[86.786,22.537],[86.783,22.536],[86.785,22.532],[86.785,22.529],[86.783,22.524],[86.79,22.52],[86.791,22.517],[86.792,22.513],[86.789,22.51],[86.79,22.508],[86.799,22.499],[86.791,22.494],[86.793,22.491],[86.797,22.489],[86.798,22.487],[86.798,22.484],[86.796,22.48],[86.789,22.475],[86.786,22.477],[86.783,22.477],[86.776,22.477],[86.77,22.476],[86.761,22.479],[86.753,22.48],[86.748,22.479],[86.745,22.476],[86.745,22.471],[86.749,22.46],[86.751,22.451],[86.757,22.446],[86.757,22.442],[86.758,22.436],[86.762,22.425],[86.764,22.423],[86.769,22.422],[86.779,22.421],[86.789,22.418],[86.805,22.416],[86.818,22.412],[86.831,22.406],[86.839,22.401],[86.844,22.396],[86.845,22.392],[86.844,22.388],[86.84,22.384],[86.838,22.379],[86.841,22.369],[86.836,22.361],[86.829,22.342],[86.83,22.338],[86.829,22.329],[86.829,22.325],[86.837,22.317],[86.841,22.314],[86.847,22.313],[86.863,22.304],[86.868,22.305],[86.871,22.303],[86.873,22.299],[86.881,22.296],[86.885,22.297],[86.886,22.294],[86.887,22.287],[86.888,22.281],[86.889,22.276],[86.888,22.27],[86.886,22.269],[86.886,22.263],[86.887,22.259],[86.886,22.252],[86.873,22.254],[86.869,22.255],[86.865,22.253],[86.858,22.254],[86.854,22.257],[86.851,22.26],[86.85,22.259],[86.841,22.257],[86.836,22.261],[86.834,22.26],[86.828,22.259],[86.823,22.261],[86.82,22.261],[86.819,22.254],[86.816,22.249],[86.814,22.258],[86.813,22.259],[86.812,22.264],[86.811,22.259],[86.809,22.254],[86.81,22.25],[86.809,22.246],[86.807,22.246],[86.807,22.244],[86.804,22.244],[86.802,22.242],[86.8,22.241],[86.797,22.243],[86.797,22.245],[86.798,22.245],[86.796,22.25],[86.801,22.262],[86.79,22.263],[86.791,22.253],[86.793,22.244],[86.793,22.239],[86.798,22.234],[86.8,22.235],[86.801,22.239],[86.81,22.238],[86.809,22.233],[86.8,22.214],[86.791,22.218],[86.786,22.214],[86.784,22.212],[86.779,22.212],[86.776,22.214],[86.779,22.222],[86.783,22.225],[86.791,22.22],[86.792,22.224],[86.787,22.229],[86.78,22.232],[86.776,22.232],[86.773,22.23],[86.772,22.228],[86.775,22.223],[86.775,22.215],[86.77,22.215],[86.767,22.211],[86.755,22.208],[86.748,22.208],[86.741,22.211],[86.734,22.211],[86.725,22.214],[86.723,22.215],[86.721,22.217],[86.711,22.218],[86.692,22.217],[86.682,22.22],[86.674,22.225],[86.67,22.23],[86.67,22.237],[86.665,22.239],[86.663,22.237],[86.66,22.234],[86.651,22.233],[86.648,22.236],[86.647,22.25],[86.648,22.253],[86.646,22.257],[86.646,22.261],[86.642,22.262],[86.641,22.264],[86.638,22.263],[86.637,22.266],[86.635,22.269],[86.63,22.269],[86.627,22.267],[86.616,22.276],[86.609,22.279],[86.603,22.278],[86.598,22.274],[86.591,22.275],[86.59,22.282],[86.586,22.287],[86.586,22.291],[86.582,22.291],[86.581,22.295],[86.578,22.298],[86.575,22.296],[86.574,22.294],[86.571,22.293],[86.568,22.297],[86.561,22.297],[86.552,22.295],[86.546,22.299],[86.54,22.304],[86.532,22.298],[86.525,22.303],[86.523,22.308],[86.521,22.311],[86.525,22.312],[86.524,22.319],[86.52,22.321],[86.508,22.324],[86.501,22.331],[86.5,22.341],[86.484,22.344],[86.482,22.342],[86.479,22.334],[86.475,22.334],[86.468,22.332],[86.467,22.329],[86.464,22.327],[86.46,22.326],[86.458,22.322],[86.45,22.323],[86.442,22.325],[86.438,22.323],[86.439,22.316],[86.44,22.311],[86.439,22.306],[86.433,22.302],[86.424,22.306],[86.425,22.309],[86.422,22.314],[86.411,22.316],[86.401,22.319],[86.391,22.325],[86.376,22.337],[86.363,22.34],[86.353,22.345],[86.353,22.352],[86.347,22.359],[86.339,22.366],[86.325,22.373],[86.32,22.38],[86.318,22.391],[86.31,22.397],[86.302,22.405],[86.301,22.415],[86.293,22.42],[86.288,22.425],[86.28,22.446],[86.271,22.443],[86.265,22.44],[86.26,22.441],[86.243,22.445],[86.228,22.45],[86.221,22.451],[86.22,22.449],[86.212,22.46],[86.217,22.464],[86.218,22.468],[86.218,22.468],[86.217,22.465],[86.209,22.463],[86.202,22.47],[86.197,22.468],[86.174,22.476],[86.166,22.477],[86.156,22.479],[86.145,22.475],[86.146,22.479],[86.12,22.486],[86.112,22.483],[86.107,22.485],[86.101,22.49],[86.098,22.496],[86.094,22.508],[86.092,22.509],[86.078,22.53],[86.069,22.543],[86.062,22.549],[86.058,22.553],[86.053,22.555],[86.047,22.558],[86.038,22.564],[86.018,22.544],[86.028,22.534],[86.022,22.521],[86.015,22.524],[86.009,22.519],[86.002,22.515],[86,22.515],[85.996,22.509],[85.993,22.509],[85.984,22.511],[85.981,22.51],[85.969,22.5],[85.966,22.494],[85.966,22.49],[85.967,22.486],[85.967,22.482],[85.961,22.479],[85.958,22.476],[85.959,22.47],[85.958,22.466],[85.954,22.456],[85.961,22.453],[85.963,22.445],[85.967,22.441],[85.982,22.429],[85.993,22.422],[85.997,22.422],[86,22.423],[86.003,22.425],[86.006,22.425],[86.009,22.424],[86.01,22.422],[86.01,22.419],[86.012,22.415],[86.014,22.404],[86.012,22.399],[86.015,22.397],[86.016,22.393],[86.018,22.393],[86.019,22.391],[86.018,22.386],[86.021,22.384],[86.021,22.382],[86.02,22.378],[86.021,22.375],[86.019,22.375],[86.018,22.372],[86.016,22.373],[86.015,22.366],[86.017,22.362],[86.006,22.349],[85.993,22.338],[85.996,22.333],[85.998,22.331],[86.005,22.336],[86.014,22.335],[86.02,22.329],[86.019,22.327],[86.013,22.324],[86.006,22.316],[86.008,22.313],[86.008,22.31],[86.011,22.311],[86.011,22.309],[86.018,22.305],[86.02,22.306],[86.025,22.304],[86.028,22.308],[86.032,22.305],[86.034,22.308],[86.039,22.309],[86.042,22.308],[86.043,22.306],[86.04,22.304],[86.03,22.303],[86.029,22.301],[86.027,22.299],[86.023,22.298],[86.02,22.298],[86.016,22.297],[86.008,22.293],[86,22.284],[86.002,22.281],[86.001,22.279],[85.998,22.275],[85.993,22.273],[85.985,22.267],[85.985,22.257],[85.982,22.252],[85.97,22.243],[85.971,22.238],[85.978,22.236],[85.985,22.224],[85.993,22.215],[86.017,22.199],[86.026,22.189],[86.027,22.185],[86.015,22.173],[86.013,22.168],[86.013,22.164],[86.011,22.158],[86.004,22.151],[85.999,22.145],[86,22.142],[85.999,22.137],[85.995,22.132],[85.995,22.124],[85.996,22.121],[86.003,22.113],[86,22.109],[85.993,22.1],[85.989,22.093],[85.979,22.083],[85.977,22.08],[85.977,22.077],[85.975,22.072],[85.971,22.067],[85.967,22.06],[85.963,22.054],[85.958,22.043],[85.954,22.036],[85.952,22.032],[85.945,22.023],[85.943,22.019],[85.939,22.017],[85.933,22.017],[85.929,22.019],[85.925,22.017],[85.923,22.014],[85.92,22.01],[85.912,22.005],[85.913,21.997],[85.909,21.99],[85.907,21.981],[85.91,21.978],[85.909,21.976],[85.904,21.973],[85.906,21.968],[85.905,21.967],[85.903,21.967],[85.894,21.978],[85.891,21.979],[85.886,21.975],[85.882,21.975],[85.871,21.975],[85.847,21.977],[85.84,21.976],[85.829,21.973],[85.822,21.97],[85.818,21.97],[85.816,21.971],[85.816,21.975],[85.815,21.98],[85.813,21.981],[85.805,21.98],[85.801,21.982],[85.784,21.979],[85.782,21.979],[85.781,21.981],[85.771,21.984],[85.761,21.99],[85.761,21.997],[85.756,22.008],[85.759,22.015],[85.762,22.018],[85.772,22.025],[85.776,22.028],[85.779,22.036],[85.773,22.043],[85.771,22.047],[85.77,22.051],[85.785,22.072],[85.788,22.077],[85.797,22.075],[85.803,22.072],[85.814,22.07],[85.831,22.077],[85.828,22.083],[85.825,22.087],[85.819,22.09],[85.815,22.093],[85.809,22.092],[85.815,22.099],[85.815,22.102],[85.802,22.111],[85.797,22.106],[85.794,22.105],[85.791,22.1],[85.784,22.099],[85.779,22.093],[85.773,22.09],[85.765,22.088],[85.758,22.085],[85.752,22.079],[85.75,22.074],[85.746,22.07],[85.734,22.065],[85.722,22.058],[85.718,22.058],[85.713,22.056],[85.708,22.056],[85.705,22.054],[85.696,22.057],[85.688,22.056],[85.682,22.049],[85.672,22.051],[85.672,22.06],[85.668,22.061],[85.665,22.067],[85.658,22.074],[85.655,22.078],[85.65,22.081],[85.648,22.087],[85.645,22.09],[85.64,22.09],[85.636,22.086],[85.631,22.082],[85.626,22.08],[85.62,22.078],[85.611,22.077],[85.609,22.079],[85.607,22.082],[85.604,22.079],[85.602,22.076],[85.597,22.075],[85.591,22.074],[85.587,22.077],[85.582,22.081],[85.571,22.086],[85.566,22.087],[85.56,22.085],[85.554,22.091],[85.549,22.089],[85.54,22.087],[85.537,22.09],[85.536,22.094],[85.534,22.097],[85.529,22.099],[85.524,22.103],[85.515,22.108],[85.506,22.111],[85.486,22.116],[85.479,22.122],[85.472,22.124],[85.465,22.131],[85.457,22.136],[85.436,22.144],[85.418,22.153],[85.41,22.156],[85.402,22.157],[85.394,22.159],[85.39,22.155],[85.385,22.152],[85.379,22.152],[85.372,22.152],[85.369,22.155],[85.363,22.155],[85.362,22.15],[85.363,22.147],[85.358,22.138],[85.359,22.133],[85.362,22.125],[85.361,22.121],[85.358,22.12],[85.354,22.121],[85.345,22.127],[85.339,22.125],[85.323,22.125],[85.315,22.116],[85.31,22.113],[85.3,22.107],[85.287,22.093],[85.281,22.088],[85.274,22.08],[85.27,22.069],[85.265,22.06],[85.26,22.053],[85.256,22.042],[85.247,22.025],[85.241,22.013],[85.231,22],[85.222,22.003],[85.218,22.007],[85.215,22.011],[85.214,22.016],[85.214,22.027],[85.215,22.037],[85.211,22.043],[85.192,22.051],[85.187,22.053],[85.183,22.055],[85.179,22.065],[85.177,22.067],[85.172,22.068],[85.17,22.066],[85.164,22.065],[85.17,22.053],[85.171,22.048],[85.167,22.049],[85.164,22.053],[85.159,22.062],[85.158,22.067],[85.156,22.07],[85.149,22.073],[85.141,22.074],[85.135,22.071],[85.125,22.069],[85.119,22.066],[85.113,22.071],[85.11,22.076],[85.109,22.08],[85.104,22.083],[85.1,22.085],[85.099,22.096],[85.095,22.099],[85.084,22.1],[85.076,22.103],[85.069,22.107],[85.044,22.111],[85.035,22.108],[85.031,22.102],[85.027,22.101],[85.02,22.103],[85.014,22.094],[85.009,22.091],[85.007,22.083],[85.002,22.08],[84.994,22.077],[84.987,22.077],[84.981,22.082],[84.98,22.085],[84.98,22.091],[84.983,22.091],[84.986,22.093],[84.994,22.098],[85.019,22.108],[85.024,22.112],[85.024,22.118],[85.027,22.123],[85.031,22.137],[85.03,22.142],[85.026,22.148],[85.025,22.154],[85.028,22.157],[85.033,22.161],[85.041,22.171],[85.048,22.174],[85.05,22.179],[85.047,22.186],[85.059,22.206],[85.063,22.216],[85.069,22.231],[85.068,22.243],[85.072,22.246],[85.074,22.251],[85.07,22.26],[85.069,22.268],[85.071,22.272],[85.082,22.278],[85.099,22.288],[85.105,22.291],[85.108,22.289],[85.114,22.29],[85.115,22.3],[85.112,22.305],[85.114,22.314],[85.108,22.315],[85.101,22.314],[85.095,22.312],[85.088,22.314],[85.086,22.317],[85.09,22.325],[85.093,22.341],[85.082,22.341],[85.08,22.344],[85.074,22.349],[85.075,22.356],[85.075,22.361],[85.078,22.369],[85.083,22.378],[85.081,22.395],[85.077,22.403],[85.077,22.408],[85.075,22.413],[85.068,22.418],[85.064,22.423],[85.063,22.436],[85.058,22.44],[85.057,22.445],[85.06,22.45],[85.071,22.456],[85.071,22.461],[85.074,22.467],[85.073,22.473],[85.062,22.478],[85.051,22.479],[85.047,22.477],[85.042,22.477],[85.037,22.475],[85.035,22.477],[85.033,22.477],[85.032,22.47],[85.028,22.468],[85.022,22.467],[85,22.458],[84.994,22.458],[84.978,22.451],[84.96,22.444],[84.957,22.442],[84.955,22.439],[84.952,22.439],[84.953,22.446],[84.952,22.453],[84.947,22.451],[84.941,22.447],[84.931,22.44],[84.925,22.437],[84.917,22.434],[84.918,22.429],[84.92,22.426],[84.916,22.423],[84.908,22.42],[84.894,22.418],[84.88,22.418],[84.882,22.426],[84.882,22.429],[84.879,22.432],[84.878,22.443],[84.877,22.443],[84.875,22.441],[84.871,22.438],[84.864,22.435],[84.855,22.432],[84.848,22.434],[84.841,22.435],[84.839,22.434],[84.836,22.428],[84.833,22.426],[84.832,22.43],[84.828,22.429],[84.813,22.432],[84.81,22.435],[84.81,22.441],[84.808,22.447],[84.801,22.444],[84.791,22.443],[84.778,22.444],[84.753,22.442],[84.744,22.415],[84.726,22.417],[84.711,22.414],[84.691,22.413],[84.682,22.415],[84.673,22.415],[84.669,22.416],[84.662,22.414],[84.632,22.429],[84.626,22.428],[84.614,22.428],[84.595,22.425],[84.594,22.429],[84.589,22.425],[84.572,22.423],[84.543,22.417],[84.541,22.421],[84.527,22.42],[84.521,22.415],[84.506,22.416],[84.502,22.415],[84.481,22.406],[84.477,22.406],[84.474,22.402],[84.476,22.394],[84.476,22.39],[84.48,22.387],[84.478,22.384],[84.473,22.383],[84.456,22.375],[84.448,22.379],[84.442,22.373],[84.427,22.365],[84.427,22.362],[84.431,22.36],[84.426,22.352],[84.426,22.349],[84.419,22.351],[84.394,22.344],[84.388,22.346],[84.378,22.346],[84.372,22.349],[84.367,22.35],[84.362,22.349],[84.359,22.345],[84.353,22.345],[84.345,22.344],[84.338,22.342],[84.334,22.343],[84.324,22.339],[84.319,22.34],[84.315,22.339],[84.289,22.337],[84.285,22.342],[84.273,22.345],[84.266,22.348],[84.261,22.354],[84.251,22.37],[84.247,22.374],[84.24,22.374],[84.226,22.374],[84.194,22.372],[84.183,22.384],[84.175,22.389],[84.152,22.401],[84.142,22.415],[84.136,22.421],[84.133,22.445],[84.135,22.449],[84.138,22.457],[84.137,22.467],[84.135,22.471],[84.131,22.47],[84.129,22.473],[84.126,22.474],[84.118,22.471],[84.106,22.474],[84.102,22.477],[84.103,22.479],[84.103,22.481],[84.1,22.48],[84.088,22.485],[84.079,22.489],[84.072,22.494],[84.067,22.498],[84.069,22.5],[84.067,22.502],[84.06,22.505],[84.058,22.51],[84.051,22.512],[84.033,22.512],[84.025,22.516],[84.019,22.521],[84.016,22.522],[84.01,22.52],[84.003,22.521],[84.005,22.525],[84.005,22.53],[84.002,22.534],[83.999,22.54],[84.002,22.547],[84.004,22.555],[84.004,22.562],[84.005,22.57],[84.011,22.575],[84.018,22.579],[84.02,22.583],[84.021,22.587],[84.034,22.591],[84.042,22.592],[84.048,22.594],[84.053,22.603],[84.059,22.607],[84.08,22.637],[84.094,22.633],[84.098,22.633],[84.107,22.637],[84.115,22.635],[84.132,22.636],[84.15,22.634],[84.157,22.641],[84.165,22.645],[84.18,22.65],[84.192,22.66],[84.197,22.664],[84.202,22.665],[84.207,22.665],[84.21,22.663],[84.215,22.665],[84.221,22.669],[84.228,22.677],[84.232,22.689],[84.228,22.698],[84.229,22.705],[84.228,22.723],[84.225,22.727],[84.225,22.735],[84.23,22.74],[84.242,22.748],[84.252,22.758],[84.254,22.761],[84.254,22.763],[84.26,22.765],[84.274,22.766],[84.279,22.761],[84.281,22.76],[84.285,22.763],[84.288,22.771],[84.287,22.777],[84.29,22.787],[84.296,22.794],[84.302,22.795],[84.303,22.798],[84.31,22.799],[84.312,22.803],[84.313,22.81],[84.318,22.817],[84.32,22.836],[84.319,22.835],[84.318,22.844],[84.32,22.849],[84.329,22.86],[84.335,22.86],[84.338,22.859],[84.342,22.859],[84.348,22.863],[84.358,22.861],[84.37,22.865],[84.37,22.869],[84.371,22.872],[84.376,22.874],[84.377,22.876],[84.376,22.881],[84.378,22.888],[84.378,22.893],[84.377,22.898],[84.373,22.898],[84.371,22.902],[84.376,22.909],[84.386,22.917],[84.39,22.924],[84.389,22.939],[84.386,22.942],[84.382,22.946],[84.379,22.949],[84.378,22.952],[84.378,22.962],[84.376,22.966],[84.373,22.972],[84.371,22.975],[84.361,22.975],[84.348,22.976],[84.344,22.974],[84.332,22.979],[84.325,22.979],[84.318,22.977],[84.314,22.972],[84.307,22.968],[84.289,22.962],[84.279,22.961],[84.272,22.971],[84.269,22.979],[84.271,22.984],[84.271,22.989],[84.268,22.988],[84.262,22.98],[84.255,22.974],[84.251,22.971],[84.242,22.973],[84.237,22.98],[84.227,22.98],[84.217,22.976],[84.215,22.977],[84.212,22.986],[84.201,22.999],[84.197,23.004],[84.2,23.015],[84.198,23.019],[84.19,23.024],[84.179,23.023],[84.177,23.021],[84.175,23.012],[84.173,23.007],[84.174,23],[84.173,22.999],[84.169,22.995],[84.171,22.985],[84.171,22.977],[84.168,22.971],[84.155,22.964],[84.148,22.964],[84.144,22.975],[84.145,22.983],[84.144,22.988],[84.138,22.998],[84.137,23.006],[84.132,23.018],[84.127,23.026],[84.125,23.031],[84.124,23.037],[84.123,23.045],[84.125,23.053],[84.126,23.057],[84.131,23.063],[84.132,23.067],[84.131,23.077],[84.129,23.082],[84.126,23.085],[84.116,23.086],[84.112,23.087],[84.11,23.092],[84.105,23.099],[84.097,23.105],[84.088,23.109],[84.076,23.11],[84.067,23.107],[84.061,23.11],[84.059,23.113],[84.056,23.121],[84.053,23.124],[84.045,23.131],[84.04,23.132],[84.036,23.135],[84.034,23.138],[84.033,23.143],[84.03,23.149],[84.029,23.154],[84.031,23.161],[84.034,23.168],[84.039,23.179],[84.044,23.185],[84.051,23.19],[84.056,23.196],[84.058,23.204],[84.058,23.208],[84.054,23.213],[84.052,23.216],[84.052,23.221],[84.054,23.234],[84.05,23.241],[84.051,23.247],[84.059,23.274],[84.059,23.282],[84.06,23.286],[84.063,23.29],[84.064,23.292],[84.059,23.304],[84.06,23.308],[84.07,23.33],[84.068,23.334],[84.061,23.343],[84.05,23.352],[84.049,23.354],[84.047,23.364],[84.044,23.367],[84.043,23.37],[84.047,23.371],[84.043,23.374],[84.038,23.376],[84.026,23.377],[84.021,23.375],[84.017,23.372],[84.011,23.363],[84.007,23.353],[83.993,23.356],[83.983,23.36],[83.975,23.365],[83.97,23.369],[83.967,23.374],[83.966,23.381],[83.968,23.393],[83.976,23.408],[83.978,23.414],[83.978,23.421],[83.979,23.427],[83.978,23.431],[83.97,23.448],[83.97,23.455],[83.979,23.461],[83.985,23.476],[83.989,23.482],[83.993,23.485],[83.997,23.493],[84.006,23.496],[84.009,23.5],[84.012,23.508],[84.013,23.521],[84.015,23.526],[84.023,23.544],[84.021,23.55],[84.025,23.566],[84.023,23.575],[84.024,23.588],[84.022,23.592],[84.022,23.597],[84.02,23.6],[84.013,23.605],[84.002,23.62],[84.002,23.623],[84.004,23.626],[84.008,23.629],[84.007,23.632],[83.993,23.633],[83.975,23.631],[83.963,23.626],[83.949,23.624],[83.938,23.622],[83.932,23.611],[83.93,23.594],[83.935,23.563],[83.922,23.565],[83.915,23.569],[83.905,23.57],[83.898,23.571],[83.89,23.576],[83.883,23.573],[83.86,23.578],[83.846,23.581],[83.838,23.581],[83.821,23.585],[83.811,23.589],[83.806,23.582],[83.8,23.583],[83.798,23.59],[83.786,23.598],[83.775,23.6],[83.768,23.609],[83.766,23.618],[83.765,23.621],[83.748,23.627],[83.743,23.64],[83.745,23.646],[83.752,23.649],[83.751,23.653],[83.744,23.659],[83.729,23.667],[83.721,23.674],[83.715,23.683],[83.715,23.69],[83.723,23.694],[83.724,23.697],[83.732,23.705],[83.735,23.714],[83.732,23.724],[83.729,23.732],[83.73,23.744],[83.729,23.755],[83.727,23.76],[83.712,23.772],[83.713,23.781],[83.711,23.79],[83.708,23.795],[83.7,23.802],[83.696,23.808],[83.699,23.816],[83.695,23.821],[83.688,23.824],[83.682,23.826],[83.678,23.823],[83.672,23.82],[83.666,23.826],[83.658,23.828],[83.655,23.832],[83.658,23.837],[83.656,23.844],[83.65,23.848],[83.638,23.847],[83.63,23.847],[83.611,23.853],[83.601,23.853],[83.59,23.856],[83.581,23.862],[83.572,23.863],[83.561,23.863],[83.558,23.87],[83.564,23.873],[83.573,23.877],[83.576,23.884],[83.57,23.89],[83.561,23.893],[83.549,23.893],[83.543,23.898],[83.537,23.915],[83.539,23.934],[83.534,23.942],[83.523,23.952],[83.512,23.967],[83.508,23.979],[83.507,23.991],[83.508,24.001],[83.517,24.011],[83.515,24.016],[83.51,24.025],[83.507,24.028],[83.501,24.031],[83.479,24.039],[83.468,24.041],[83.458,24.042],[83.453,24.041],[83.448,24.042],[83.433,24.055],[83.431,24.058],[83.429,24.062],[83.431,24.069],[83.43,24.074],[83.429,24.08],[83.425,24.084],[83.421,24.084],[83.415,24.081],[83.409,24.08],[83.403,24.081],[83.401,24.082],[83.392,24.095],[83.383,24.1],[83.362,24.102],[83.357,24.102],[83.346,24.097],[83.328,24.1],[83.324,24.101],[83.339,24.11],[83.343,24.114],[83.344,24.119],[83.349,24.126],[83.35,24.137],[83.353,24.14],[83.356,24.148],[83.357,24.157],[83.366,24.172],[83.369,24.181],[83.37,24.187],[83.378,24.201],[83.378,24.205],[83.376,24.21],[83.376,24.214],[83.378,24.217],[83.379,24.22],[83.377,24.231],[83.377,24.236],[83.381,24.24],[83.391,24.245],[83.393,24.247],[83.393,24.253],[83.402,24.266],[83.403,24.276],[83.401,24.285],[83.396,24.293],[83.391,24.297],[83.387,24.298],[83.382,24.3],[83.381,24.3],[83.38,24.305],[83.376,24.313],[83.376,24.315],[83.379,24.316],[83.385,24.32],[83.391,24.327],[83.403,24.337],[83.407,24.339],[83.411,24.34],[83.424,24.339],[83.427,24.34],[83.43,24.345],[83.434,24.347],[83.441,24.361],[83.446,24.363],[83.451,24.365],[83.451,24.367],[83.448,24.368],[83.443,24.373],[83.443,24.378],[83.44,24.38],[83.44,24.387],[83.439,24.389],[83.435,24.391],[83.433,24.394],[83.43,24.396],[83.43,24.404],[83.426,24.406],[83.417,24.409],[83.412,24.41],[83.4,24.409],[83.399,24.412],[83.401,24.437],[83.392,24.436],[83.39,24.438],[83.381,24.456],[83.384,24.461],[83.387,24.465],[83.388,24.468],[83.388,24.473],[83.393,24.48],[83.393,24.485],[83.394,24.489],[83.392,24.493],[83.392,24.497],[83.393,24.501],[83.395,24.504],[83.4,24.506],[83.426,24.513],[83.436,24.514],[83.453,24.517],[83.462,24.518],[83.481,24.524],[83.487,24.524],[83.498,24.527],[83.51,24.528],[83.524,24.526],[83.535,24.526],[83.542,24.526],[83.547,24.524],[83.571,24.517],[83.592,24.515],[83.6,24.513],[83.645,24.516],[83.663,24.516],[83.671,24.515],[83.682,24.516],[83.696,24.511],[83.702,24.507],[83.717,24.505],[83.731,24.509],[83.749,24.511],[83.782,24.524],[83.788,24.527],[83.794,24.529],[83.799,24.53],[83.809,24.529],[83.816,24.531],[83.827,24.533],[83.841,24.535],[83.848,24.536],[83.858,24.538],[83.868,24.533],[83.879,24.537],[83.903,24.542],[83.918,24.546],[83.924,24.546],[83.928,24.548],[83.933,24.552],[83.936,24.556],[83.948,24.567],[83.958,24.576],[83.965,24.588],[83.972,24.597],[83.979,24.615],[83.992,24.638],[84.002,24.635],[84.015,24.632],[84.016,24.628],[84.02,24.627],[84.024,24.629],[84.027,24.628],[84.029,24.623],[84.032,24.622],[84.033,24.619],[84.038,24.619],[84.047,24.612],[84.045,24.607],[84.048,24.607],[84.053,24.595],[84.051,24.592],[84.053,24.588],[84.058,24.588],[84.061,24.589],[84.063,24.584],[84.06,24.577],[84.065,24.575],[84.068,24.571],[84.072,24.57],[84.075,24.565],[84.074,24.558],[84.077,24.552],[84.078,24.545],[84.084,24.539],[84.089,24.536],[84.09,24.534],[84.087,24.515],[84.089,24.504],[84.097,24.496],[84.101,24.488],[84.11,24.481],[84.123,24.487],[84.125,24.498],[84.129,24.501],[84.137,24.503],[84.14,24.505],[84.137,24.518],[84.136,24.529],[84.146,24.54],[84.15,24.54],[84.161,24.538],[84.164,24.534],[84.156,24.524],[84.156,24.519],[84.154,24.518],[84.161,24.513],[84.171,24.51],[84.179,24.51],[84.182,24.516],[84.182,24.518],[84.186,24.522],[84.182,24.524],[84.173,24.542],[84.173,24.547],[84.182,24.547],[84.187,24.549],[84.188,24.555],[84.2,24.557],[84.201,24.549],[84.206,24.545],[84.209,24.537],[84.217,24.535],[84.221,24.55],[84.235,24.553],[84.234,24.544],[84.241,24.543],[84.248,24.539],[84.25,24.536],[84.249,24.532],[84.257,24.531],[84.258,24.538],[84.263,24.537],[84.265,24.541],[84.269,24.541],[84.269,24.547],[84.278,24.547],[84.28,24.552],[84.272,24.554],[84.269,24.564],[84.28,24.563],[84.293,24.566],[84.297,24.563],[84.302,24.547],[84.309,24.54],[84.312,24.534],[84.313,24.527],[84.319,24.522],[84.322,24.513],[84.326,24.503],[84.326,24.497],[84.322,24.49],[84.308,24.487],[84.294,24.481],[84.285,24.466],[84.29,24.458],[84.293,24.451],[84.315,24.448],[84.33,24.431],[84.331,24.428],[84.327,24.428],[84.319,24.429],[84.315,24.423],[84.318,24.42],[84.325,24.424],[84.328,24.422],[84.328,24.417],[84.326,24.411],[84.332,24.405],[84.338,24.401],[84.336,24.396],[84.347,24.392],[84.355,24.391],[84.361,24.387],[84.367,24.387],[84.374,24.391],[84.382,24.39],[84.385,24.379],[84.392,24.376],[84.398,24.377],[84.4,24.375],[84.395,24.368],[84.423,24.359],[84.418,24.342],[84.417,24.331],[84.445,24.334],[84.447,24.34],[84.455,24.339],[84.462,24.318],[84.465,24.308],[84.468,24.305],[84.475,24.303],[84.479,24.303],[84.487,24.305],[84.489,24.302],[84.488,24.299],[84.484,24.297],[84.494,24.287],[84.497,24.293],[84.502,24.295],[84.501,24.299],[84.505,24.306],[84.503,24.315],[84.511,24.317],[84.514,24.324],[84.517,24.334],[84.525,24.339],[84.519,24.346],[84.519,24.353],[84.527,24.361],[84.528,24.365],[84.524,24.369],[84.522,24.376],[84.542,24.377],[84.546,24.374],[84.556,24.38],[84.566,24.384],[84.564,24.39],[84.559,24.397],[84.561,24.402],[84.565,24.407],[84.572,24.412],[84.58,24.41],[84.582,24.401],[84.59,24.404],[84.594,24.404],[84.601,24.401],[84.613,24.401],[84.615,24.404],[84.619,24.402],[84.623,24.404],[84.629,24.4],[84.643,24.399],[84.658,24.394],[84.66,24.396],[84.663,24.411],[84.668,24.413],[84.668,24.426],[84.666,24.428],[84.666,24.431],[84.674,24.441],[84.679,24.456],[84.684,24.459],[84.694,24.462],[84.707,24.472],[84.713,24.469],[84.718,24.469],[84.725,24.473],[84.74,24.488],[84.742,24.496],[84.763,24.502],[84.78,24.505],[84.784,24.518],[84.79,24.522],[84.795,24.529],[84.802,24.521],[84.819,24.525],[84.833,24.511],[84.828,24.486],[84.827,24.47],[84.833,24.47],[84.833,24.461],[84.831,24.459],[84.834,24.453],[84.842,24.455],[84.847,24.466],[84.857,24.461],[84.857,24.458],[84.86,24.457],[84.863,24.458],[84.867,24.467],[84.873,24.466],[84.876,24.463],[84.88,24.463],[84.878,24.444],[84.88,24.432],[84.878,24.423],[84.882,24.417],[84.892,24.399],[84.898,24.394],[84.901,24.382],[84.894,24.375],[84.898,24.372],[84.903,24.372],[84.913,24.376],[84.925,24.378],[84.935,24.376],[84.948,24.372],[84.969,24.376],[84.99,24.412],[85.011,24.416],[85.015,24.419],[85.021,24.422],[85.032,24.425],[85.036,24.423],[85.04,24.424],[85.042,24.418],[85.053,24.415],[85.057,24.416],[85.06,24.425],[85.065,24.431],[85.069,24.436],[85.076,24.44],[85.076,24.422],[85.074,24.413],[85.075,24.408],[85.073,24.407],[85.07,24.405],[85.069,24.401],[85.071,24.4],[85.065,24.387],[85.081,24.381],[85.089,24.379],[85.092,24.382],[85.096,24.391],[85.099,24.394],[85.109,24.399],[85.115,24.409],[85.119,24.409],[85.121,24.408],[85.127,24.412],[85.148,24.418],[85.155,24.418],[85.158,24.424],[85.164,24.428],[85.169,24.429],[85.169,24.432],[85.166,24.433],[85.165,24.436],[85.164,24.441],[85.161,24.443],[85.159,24.451],[85.153,24.454],[85.15,24.456],[85.149,24.459],[85.151,24.463],[85.153,24.464],[85.163,24.467],[85.168,24.467],[85.17,24.466],[85.176,24.468],[85.183,24.469],[85.191,24.469],[85.199,24.467],[85.203,24.473],[85.216,24.473],[85.224,24.471],[85.229,24.479],[85.235,24.48],[85.239,24.489],[85.246,24.495],[85.254,24.498],[85.27,24.498],[85.282,24.497],[85.281,24.5],[85.282,24.504],[85.282,24.509],[85.28,24.514],[85.279,24.519],[85.283,24.527],[85.288,24.528],[85.297,24.529],[85.313,24.527],[85.319,24.525],[85.323,24.526],[85.332,24.526],[85.338,24.528],[85.346,24.528],[85.361,24.53],[85.37,24.53],[85.383,24.533],[85.383,24.535],[85.389,24.537],[85.395,24.541],[85.403,24.545],[85.407,24.546],[85.411,24.545],[85.428,24.537],[85.433,24.536],[85.442,24.539],[85.442,24.539],[85.447,24.54],[85.457,24.539],[85.472,24.548],[85.481,24.548],[85.486,24.551],[85.489,24.549],[85.494,24.551],[85.498,24.549],[85.497,24.547],[85.5,24.544],[85.503,24.543],[85.503,24.536],[85.502,24.531],[85.504,24.53],[85.515,24.528],[85.518,24.525],[85.534,24.532],[85.536,24.536],[85.54,24.55],[85.54,24.556],[85.538,24.561],[85.536,24.564],[85.537,24.565],[85.539,24.566],[85.544,24.564],[85.552,24.559],[85.555,24.556],[85.556,24.557],[85.557,24.561],[85.564,24.562],[85.568,24.565],[85.566,24.572],[85.567,24.578],[85.562,24.581],[85.561,24.584],[85.563,24.591],[85.565,24.597],[85.57,24.6],[85.577,24.603],[85.582,24.6],[85.591,24.597],[85.598,24.598],[85.608,24.591],[85.609,24.585],[85.615,24.583],[85.622,24.584],[85.633,24.581],[85.644,24.578],[85.665,24.582],[85.67,24.588],[85.673,24.593],[85.674,24.596],[85.672,24.598],[85.671,24.599],[85.672,24.619],[85.669,24.631],[85.666,24.636],[85.664,24.641],[85.664,24.644],[85.661,24.647],[85.661,24.651],[85.664,24.661],[85.663,24.665],[85.661,24.668],[85.66,24.67],[85.66,24.675],[85.65,24.679],[85.648,24.682],[85.65,24.687],[85.68,24.694],[85.687,24.701],[85.697,24.713],[85.696,24.717],[85.699,24.721],[85.703,24.725],[85.705,24.729],[85.705,24.74],[85.708,24.748],[85.706,24.752],[85.704,24.757],[85.703,24.763],[85.705,24.769],[85.709,24.776],[85.71,24.781],[85.712,24.783],[85.721,24.787],[85.723,24.799],[85.728,24.801],[85.73,24.808],[85.733,24.816],[85.735,24.821],[85.737,24.823],[85.747,24.82],[85.758,24.815],[85.761,24.815],[85.765,24.813],[85.769,24.809],[85.769,24.804],[85.769,24.803],[85.777,24.799],[85.779,24.8],[85.786,24.799],[85.811,24.794],[85.813,24.799],[85.818,24.807],[85.823,24.809],[85.827,24.81],[85.842,24.808],[85.854,24.808],[85.864,24.805],[85.878,24.8],[85.89,24.792],[85.887,24.786],[85.902,24.77],[85.905,24.761],[85.911,24.754],[85.921,24.745],[85.928,24.74],[85.943,24.734],[85.95,24.732],[85.961,24.732],[85.966,24.732],[85.97,24.734],[85.973,24.736],[85.976,24.746],[85.977,24.748],[86,24.751],[86.006,24.766],[86.01,24.768],[86.014,24.769],[86.02,24.768],[86.023,24.769],[86.028,24.77],[86.032,24.773],[86.034,24.776],[86.039,24.777],[86.043,24.777],[86.048,24.778],[86.051,24.78],[86.053,24.773],[86.053,24.768],[86.053,24.762],[86.05,24.756],[86.045,24.752],[86.042,24.748],[86.036,24.747],[86.037,24.744],[86.039,24.741],[86.043,24.744],[86.055,24.746],[86.06,24.748],[86.063,24.752],[86.087,24.746],[86.106,24.736],[86.109,24.732],[86.111,24.724],[86.116,24.719],[86.119,24.712],[86.124,24.705],[86.129,24.69],[86.132,24.68],[86.134,24.676],[86.13,24.671],[86.126,24.671],[86.128,24.666],[86.126,24.654],[86.123,24.648],[86.118,24.642],[86.122,24.63],[86.122,24.624],[86.123,24.62],[86.126,24.612],[86.131,24.609],[86.133,24.604],[86.145,24.603],[86.152,24.6],[86.157,24.589],[86.166,24.584],[86.195,24.585],[86.216,24.591],[86.217,24.603],[86.217,24.612],[86.23,24.602],[86.239,24.597],[86.243,24.592],[86.249,24.585],[86.257,24.583],[86.262,24.577],[86.264,24.576],[86.266,24.582],[86.27,24.578],[86.273,24.576],[86.277,24.574],[86.276,24.579],[86.274,24.583],[86.28,24.584],[86.288,24.584],[86.293,24.586],[86.302,24.583],[86.31,24.582],[86.312,24.586],[86.323,24.584],[86.323,24.581],[86.319,24.579],[86.319,24.574],[86.311,24.568],[86.308,24.566],[86.31,24.563],[86.304,24.558],[86.31,24.547],[86.308,24.541],[86.301,24.532],[86.303,24.528],[86.308,24.526],[86.311,24.514],[86.312,24.508],[86.31,24.506],[86.303,24.498],[86.302,24.494],[86.298,24.489],[86.298,24.483],[86.294,24.476],[86.286,24.477],[86.282,24.47],[86.279,24.462],[86.301,24.457],[86.299,24.454],[86.3,24.449],[86.304,24.445],[86.316,24.444],[86.319,24.44],[86.333,24.44],[86.348,24.44],[86.351,24.444],[86.354,24.442],[86.363,24.427],[86.368,24.424],[86.373,24.416],[86.381,24.412],[86.399,24.4],[86.401,24.396],[86.416,24.379],[86.425,24.378],[86.431,24.376],[86.434,24.377],[86.446,24.368],[86.452,24.369],[86.455,24.374],[86.462,24.377],[86.466,24.385],[86.467,24.395],[86.464,24.408],[86.466,24.414],[86.464,24.419],[86.466,24.422],[86.473,24.423],[86.482,24.425],[86.489,24.425],[86.488,24.434],[86.492,24.439],[86.491,24.447],[86.491,24.454],[86.484,24.459],[86.49,24.468],[86.489,24.474],[86.491,24.479],[86.49,24.484],[86.495,24.485],[86.498,24.487],[86.498,24.498],[86.506,24.518],[86.524,24.536],[86.53,24.533],[86.536,24.536],[86.541,24.537],[86.547,24.535],[86.551,24.543],[86.558,24.548],[86.555,24.559],[86.558,24.559],[86.562,24.563],[86.568,24.563],[86.578,24.568],[86.583,24.573],[86.584,24.585],[86.59,24.593],[86.595,24.597],[86.6,24.599],[86.603,24.605],[86.609,24.607],[86.61,24.603],[86.609,24.602],[86.608,24.599],[86.607,24.594],[86.619,24.595],[86.618,24.584],[86.627,24.58],[86.634,24.577],[86.641,24.576],[86.646,24.567],[86.656,24.563],[86.668,24.561],[86.678,24.566],[86.682,24.565],[86.687,24.57],[86.695,24.569],[86.71,24.574],[86.719,24.578],[86.732,24.576],[86.735,24.581],[86.74,24.586],[86.746,24.59],[86.745,24.603],[86.751,24.618],[86.754,24.615],[86.769,24.616],[86.776,24.616],[86.775,24.62],[86.777,24.62],[86.781,24.615],[86.784,24.61],[86.786,24.605],[86.787,24.599],[86.794,24.597],[86.794,24.601],[86.793,24.605],[86.79,24.608],[86.787,24.611],[86.786,24.613],[86.786,24.617],[86.792,24.615],[86.794,24.612],[86.797,24.609],[86.797,24.606],[86.798,24.603],[86.799,24.601],[86.8,24.599],[86.802,24.597],[86.806,24.595],[86.804,24.591],[86.805,24.585],[86.806,24.581],[86.808,24.577],[86.803,24.574],[86.801,24.572],[86.8,24.569],[86.8,24.566],[86.8,24.565],[86.805,24.564],[86.809,24.564],[86.814,24.568],[86.818,24.569],[86.821,24.568],[86.826,24.566],[86.832,24.568],[86.837,24.568],[86.839,24.563],[86.839,24.559],[86.839,24.554],[86.847,24.553],[86.855,24.55],[86.857,24.557],[86.862,24.56],[86.869,24.561],[86.873,24.565],[86.876,24.567],[86.879,24.563],[86.884,24.56],[86.884,24.554],[86.887,24.554],[86.893,24.555],[86.898,24.55],[86.901,24.544],[86.906,24.541],[86.911,24.539],[86.907,24.543],[86.906,24.549],[86.907,24.555],[86.906,24.56],[86.906,24.563],[86.901,24.567],[86.903,24.572],[86.901,24.576],[86.898,24.581],[86.898,24.587],[86.901,24.592],[86.905,24.595],[86.909,24.597],[86.91,24.601],[86.918,24.611],[86.919,24.613],[86.919,24.619],[86.924,24.624],[86.929,24.626],[86.934,24.627],[86.936,24.63],[86.933,24.636],[86.93,24.643],[86.939,24.643],[86.949,24.643],[86.948,24.636],[86.945,24.631],[86.946,24.627],[86.953,24.628],[86.958,24.629],[86.966,24.632],[86.971,24.63],[86.98,24.625],[86.985,24.622],[86.988,24.62],[86.99,24.62],[86.99,24.621],[86.993,24.619],[87.01,24.606],[87.013,24.609],[87.016,24.613],[87.017,24.618],[87.021,24.62],[87.024,24.621],[87.026,24.62],[87.026,24.616],[87.026,24.611],[87.028,24.609],[87.03,24.61],[87.033,24.61],[87.035,24.61],[87.036,24.612],[87.037,24.613],[87.039,24.613],[87.041,24.611],[87.043,24.609],[87.045,24.605],[87.05,24.607],[87.048,24.61],[87.047,24.614],[87.047,24.617],[87.046,24.62],[87.044,24.624],[87.046,24.631],[87.049,24.637],[87.05,24.643],[87.051,24.649],[87.052,24.656],[87.055,24.661],[87.055,24.665],[87.055,24.671],[87.059,24.672],[87.06,24.677],[87.061,24.682],[87.064,24.685],[87.067,24.688],[87.069,24.691],[87.071,24.694],[87.071,24.699],[87.071,24.703],[87.071,24.707],[87.073,24.711],[87.074,24.713],[87.077,24.715],[87.078,24.719],[87.08,24.722],[87.082,24.725],[87.082,24.727],[87.081,24.729],[87.081,24.733],[87.081,24.736],[87.08,24.737],[87.078,24.736],[87.077,24.736],[87.076,24.736],[87.076,24.738],[87.076,24.74],[87.074,24.741],[87.074,24.743],[87.075,24.745],[87.076,24.745],[87.08,24.747],[87.082,24.748],[87.081,24.751],[87.081,24.752],[87.083,24.754],[87.085,24.756],[87.086,24.758],[87.085,24.761],[87.083,24.765],[87.083,24.768],[87.083,24.773],[87.083,24.779],[87.086,24.782],[87.088,24.785],[87.091,24.788],[87.093,24.792],[87.096,24.798],[87.097,24.801],[87.097,24.804],[87.094,24.804],[87.091,24.803],[87.089,24.804],[87.086,24.806],[87.083,24.807],[87.081,24.807],[87.081,24.81],[87.077,24.808],[87.077,24.812],[87.078,24.814],[87.077,24.818],[87.079,24.822],[87.08,24.824],[87.084,24.823],[87.088,24.823],[87.091,24.824],[87.095,24.826],[87.098,24.83],[87.1,24.835],[87.102,24.839],[87.105,24.844],[87.106,24.847],[87.109,24.851],[87.114,24.856],[87.119,24.854],[87.123,24.853],[87.127,24.854],[87.13,24.857],[87.133,24.86],[87.139,24.859],[87.145,24.859],[87.151,24.858],[87.152,24.863],[87.147,24.862],[87.148,24.868],[87.15,24.872],[87.155,24.876],[87.157,24.881],[87.158,24.886],[87.158,24.89],[87.157,24.896],[87.154,24.9],[87.15,24.903],[87.149,24.905],[87.148,24.908],[87.147,24.913],[87.148,24.918],[87.15,24.921],[87.153,24.924],[87.155,24.927],[87.155,24.932],[87.152,24.937],[87.149,24.942],[87.149,24.949],[87.151,24.956],[87.153,24.963],[87.152,24.969],[87.152,24.974],[87.153,24.983],[87.154,24.991],[87.146,25],[87.146,25.004],[87.144,25.006],[87.144,25.011],[87.144,25.018],[87.147,25.024],[87.149,25.026],[87.152,25.027],[87.158,25.031],[87.165,25.043],[87.165,25.046],[87.168,25.049],[87.173,25.056],[87.174,25.058],[87.177,25.064],[87.184,25.067],[87.188,25.067],[87.197,25.074],[87.2,25.079],[87.208,25.083],[87.211,25.085],[87.211,25.09],[87.216,25.09],[87.218,25.089],[87.227,25.088],[87.234,25.086],[87.24,25.099],[87.241,25.101],[87.245,25.099],[87.249,25.105],[87.251,25.106],[87.259,25.105],[87.263,25.101],[87.264,25.098],[87.27,25.094],[87.275,25.092],[87.286,25.091],[87.291,25.089],[87.295,25.1],[87.293,25.105],[87.295,25.112],[87.295,25.114],[87.293,25.114],[87.298,25.135],[87.3,25.135],[87.303,25.138],[87.302,25.141],[87.303,25.143],[87.302,25.144],[87.302,25.145],[87.308,25.15],[87.31,25.154],[87.31,25.16],[87.314,25.163],[87.315,25.165],[87.314,25.167],[87.313,25.169],[87.311,25.17],[87.316,25.186],[87.317,25.189],[87.316,25.193],[87.316,25.197],[87.318,25.201],[87.323,25.223],[87.331,25.222],[87.33,25.217],[87.348,25.213],[87.355,25.213],[87.358,25.211],[87.368,25.207],[87.37,25.205],[87.374,25.219],[87.377,25.223],[87.383,25.223],[87.386,25.226],[87.392,25.228],[87.397,25.226],[87.402,25.221],[87.408,25.219],[87.409,25.215],[87.417,25.215],[87.455,25.198],[87.458,25.198],[87.462,25.195],[87.467,25.196],[87.468,25.193],[87.472,25.195],[87.472,25.222],[87.473,25.231],[87.473,25.241],[87.488,25.262],[87.495,25.26],[87.496,25.262],[87.496,25.265],[87.492,25.271],[87.494,25.275],[87.488,25.278],[87.482,25.295],[87.486,25.296],[87.49,25.305],[87.499,25.292],[87.513,25.292],[87.526,25.281],[87.529,25.28],[87.536,25.28],[87.54,25.282],[87.538,25.296],[87.541,25.304],[87.544,25.323],[87.547,25.324],[87.547,25.331],[87.567,25.334],[87.571,25.341],[87.579,25.344],[87.579,25.347],[87.58,25.348],[87.588,25.341],[87.58,25.332],[87.581,25.328],[87.589,25.324],[87.589,25.322],[87.6,25.315]]]}}]}